ONEWEB-0607             
1 54671U 22166AF  25257.13656965  .00000031  00000+0  44555-4 0  9992
2 54671  87.9204 299.0573 0002006  90.5220 269.6143 13.21823439135079
ONEWEB-0608             
1 54672U 22166AG  25257.06717361  .00000106  00000+0  22414-3 0  9995
2 54672  87.9201 299.0549 0002351  85.5920 274.5483 13.21824651135073
ONEWEB-0610             
1 54673U 22166AH  25257.12395552  .00000006  00000+0 -17883-4 0  9992
2 54673  87.9206 299.0806 0002429  84.5140 275.6271 13.21824567134986
ONEWEB-0611             
1 54674U 22166AJ  25257.04191489  .00000033  00000+0  47669-4 0  9991
2 54674  87.9204 299.0931 0001758  98.6690 261.4644 13.21823564134965
ONEWEB-0612             
1 54675U 22166AK  25257.13026007  .00000023  00000+0  25171-4 0  9998
2 54675  87.9203 299.0533 0002056  91.1174 269.0195 13.21823982134969
ONEWEB-0615             
1 54676U 22166AL  25256.88422618 -.00000037  00000+0 -12044-3 0  9999
2 54676  87.9207 299.1289 0001916  94.3856 265.7497 13.21823499134948
ONEWEB-0655             
1 54677U 22166AM  25257.08453498  .00000011  00000+0 -47719-5 0  9993
2 54677  87.9206 299.0940 0001834  85.1016 275.0327 13.21827086134960
ONEWEB-0659             
1 54678U 22166AN  25257.10186113 -.00000053  00000+0 -15926-3 0  9994
2 54678  87.9205 299.0910 0001978  99.2160 260.9198 13.21823061135051
